FLOCK 2K-38             
1 42868U 17042AV  17345.78904175  .00004726  00000-0  14087-3 0  9995
2 42868  96.9942 246.8808 0013263  71.6230 288.6455 15.35033474 22871
